NORAD_CAT_ID,OBJECT_NAME,OBJECT_TYPE,EPOCH,MEAN_MOTION,ECCENTRICITY,INCLINATION,RA_OF_ASC_NODE,ARG_OF_PERICENTER,MEAN_ANOMALY,BSTAR,MEAN_MOTION_DOT,MEAN_MOTION_DDOT,TLE_LINE0,TLE_LINE1,TLE_LINE2,SEMIMAJOR_AXIS,PERIOD,APOGEE,PERIGEE,DECAYED
52137.0,STARLINK-3733,PAYLOAD,2024-04-04 20:27:17,15.0884665,0.0001444,53.218,348.7704,102.4815,257.6339,0.00044083,6.736e-05,0.0,0 STARLINK-3733,1 52137U 22029BB  24095.85228898  .00006736  00000-0  44083-3 0  9997,2 52137  53.2180 348.7704 0001444 102.4815 257.6339 15.08846650114684,6917.86,95.437,540.724,538.726,0.0
52137.0,STARLINK-3733,PAYLOAD,2024-04-04 22:02:40,15.08846385,0.0001439,53.2181,348.473,102.5452,257.5701,0.00041251,6.284e-05,0.0,0 STARLINK-3733,1 52137U 22029BB  24095.91852890  .00006284  00000-0  41251-3 0  9991,2 52137  53.2181 348.4730 0001439 102.5452 257.5701 15.08846385114691,6917.861,95.437,540.721,538.73,0.0
52137.0,STARLINK-3733,PAYLOAD,2024-04-05 09:10:22,15.08856015,0.0001323,53.2178,346.3932,95.0905,265.0239,0.00048073,7.374e-05,0.0,0 STARLINK-3733,1 52137U 22029BB  24096.38220419  .00007374  00000-0  48073-3 0  9999,2 52137  53.2178 346.3932 0001323  95.0905 265.0239 15.08856015114768,6917.831,95.437,540.612,538.781,0.0
52137.0,STARLINK-3733,PAYLOAD,2024-04-05 20:18:04,15.08839192,0.0001325,53.2176,344.3108,87.1641,272.9503,3.5726e-05,2.81e-06,0.0,0 STARLINK-3733,1 52137U 22029BB  24096.84588879  .00000281  00000-0  35726-4 0  9999,2 52137  53.2176 344.3108 0001325  87.1641 272.9503 15.08839192114836,6917.883,95.438,540.664,538.831,0.0
52137.0,STARLINK-3733,PAYLOAD,2024-04-05 21:53:27,15.08841699,0.0001361,53.2174,344.014,90.4439,269.6709,8.7029e-05,1.097e-05,0.0,0 STARLINK-3733,1 52137U 22029BB  24096.91212822  .00001097  00000-0  87029-4 0  9998,2 52137  53.2174 344.0140 0001361  90.4439 269.6709 15.08841699114846,6917.875,95.437,540.682,538.799,0.0
52137.0,STARLINK-3733,PAYLOAD,2024-04-06 09:01:09,15.08854702,0.0001371,53.2176,341.9339,98.2167,261.8981,0.00035113,5.307e-05,0.0,0 STARLINK-3733,1 52137U 22029BB  24097.37580252  .00005307  00000-0  35113-3 0  9998,2 52137  53.2176 341.9339 0001371  98.2167 261.8981 15.08854702114912,6917.835,95.437,540.649,538.752,0.0
52137.0,STARLINK-3733,PAYLOAD,2024-04-06 16:58:05,15.08831492,0.0001419,53.2172,340.4468,103.6067,256.5084,-0.00019656,-3.414e-05,0.0,0 STARLINK-3733,1 52137U 22029BB  24097.70700794 -.00003414  00000-0 -19656-3 0  9993,2 52137  53.2172 340.4468 0001419 103.6067 256.5084 15.08831492114969,6917.906,95.438,540.753,538.79,0.0
52137.0,STARLINK-3733,PAYLOAD,2024-04-06 23:19:38,15.08832838,0.0001342,53.2169,339.258,108.7852,251.3286,2.118e-05,4.9e-07,0.0,0 STARLINK-3733,1 52137U 22029BB  24097.97196963  .00000049  00000-0  21180-4 0  9994,2 52137  53.2169 339.2580 0001342 108.7852 251.3286 15.08832838115007,6917.902,95.438,540.696,538.839,0.0
52137.0,STARLINK-3733,PAYLOAD,2024-04-07 08:51:57,15.08836371,0.0001456,53.2166,337.474,106.3932,253.722,0.00062151,9.616e-05,0.0,0 STARLINK-3733,1 52137U 22029BB  24098.36941293  .00009616  00000-0  62151-3 0  9993,2 52137  53.2166 337.4740 0001456 106.3932 253.7220 15.08836371115067,6917.891,95.438,540.764,538.749,0.0
52137.0,STARLINK-3733,PAYLOAD,2024-04-07 21:35:02,15.08840658,0.0001598,53.2166,335.0961,104.0124,256.1046,0.00047544,7.287e-05,0.0,0 STARLINK-3733,1 52137U 22029BB  24098.89933478  .00007287  00000-0  47544-3 0  9998,2 52137  53.2166 335.0961 0001598 104.0124 256.1046 15.08840658115146,6917.878,95.438,540.849,538.638,0.0
52137.0,STARLINK-3733,PAYLOAD,2024-04-08 08:42:44,15.08854089,0.0001373,53.2149,333.0119,88.6381,271.4769,0.00071931,0.00011183,0.0,0 STARLINK-3733,1 52137U 22029BB  24099.36301123  .00011183  00000-0  71931-3 0  9994,2 52137  53.2149 333.0119 0001373  88.6381 271.4769 15.08854089115216,6917.837,95.437,540.652,538.753,0.0
52137.0,STARLINK-3733,PAYLOAD,2024-04-08 23:01:11,15.08893392,0.0001434,53.2159,330.3368,87.0609,273.0548,0.0018639,0.00029544,0.0,0 STARLINK-3733,1 52137U 22029BB  24099.95916058  .00029544  00000-0  18639-2 0  9993,2 52137  53.2159 330.3368 0001434  87.0609 273.0548 15.08893392115300,6917.717,95.434,540.574,538.59,0.0
52137.0,STARLINK-3733,PAYLOAD,2024-04-09 00:36:34,15.08897414,0.0001428,53.2156,330.0388,88.2119,271.9037,0.001584,0.00025051,0.0,0 STARLINK-3733,1 52137U 22029BB  24100.02539555  .00025051  00000-0  15840-2 0  9997,2 52137  53.2156 330.0388 0001428  88.2119 271.9037 15.08897414115318,6917.705,95.434,540.558,538.582,0.0
52137.0,STARLINK-3733,PAYLOAD,2024-04-09 08:33:30,15.08843286,0.0001576,53.2152,328.5515,89.886,270.2313,-0.00017577,-3.085e-05,0.0,0 STARLINK-3733,1 52137U 22029BB  24100.35660437 -.00003085  00000-0 -17577-3 0  9992,2 52137  53.2152 328.5515 0001576  89.8860 270.2313 15.08843286115364,6917.87,95.437,540.826,538.645,0.0
52137.0,STARLINK-3733,PAYLOAD,2024-04-10 08:24:18,15.08834478,0.0002076,53.2176,324.0903,89.8932,270.2298,9.4665e-05,1.218e-05,0.0,0 STARLINK-3733,1 52137U 22029BB  24101.35021209  .00001218  00000-0  94665-4 0  9999,2 52137  53.2176 324.0903 0002076  89.8932 270.2298 15.08834478115510,6917.897,95.438,541.198,538.326,0.0
52137.0,STARLINK-3733,PAYLOAD,2024-04-10 21:07:23,15.08838924,0.0001327,53.2172,321.7116,92.1215,267.9929,8.856e-05,1.122e-05,0.0,0 STARLINK-3733,1 52137U 22029BB  24101.88013042  .00001122  00000-0  88560-4 0  9994,2 52137  53.2172 321.7116 0001327  92.1215 267.9929 15.08838924115597,6917.884,95.438,540.667,538.831,0.0
52137.0,STARLINK-3733,PAYLOAD,2024-04-11 00:18:09,15.08839306,0.0001407,53.2178,321.1162,95.4711,264.6442,0.00019217,2.772e-05,0.0,0 STARLINK-3733,1 52137U 22029BB  24102.01261140  .00002772  00000-0  19217-3 0  9998,2 52137  53.2178 321.1162 0001407  95.4711 264.6442 15.08839306115616,6917.883,95.438,540.721,538.774,0.0
52137.0,STARLINK-3733,PAYLOAD,2024-04-11 20:58:10,15.08839103,0.0001228,53.2165,317.2486,108.3998,251.7128,0.00024276,3.578e-05,0.0,0 STARLINK-3733,1 52137U 22029BB  24102.87373454  .00003578  00000-0  24276-3 0  9990,2 52137  53.2165 317.2486 0001228 108.3998 251.7128 15.08839103115746,6917.883,95.438,540.598,538.899,0.0
52137.0,STARLINK-3733,PAYLOAD,2024-04-12 00:08:56,15.0883913,0.000123,53.2165,316.6542,106.6872,253.4255,0.00021963,3.209e-05,0.0,0 STARLINK-3733,1 52137U 22029BB  24103.00621481  .00003209  00000-0  21963-3 0  9993,2 52137  53.2165 316.6542 0001230 106.6872 253.4255 15.08839130115769,6917.883,95.438,540.599,538.897,0.0
52137.0,STARLINK-3733,PAYLOAD,2024-04-13 19:04:21,15.08842337,0.0001366,53.2169,308.6241,116.7594,243.3538,0.00016382,2.32e-05,0.0,0 STARLINK-3733,1 52137U 22029BB  24104.79469535  .00002320  00000-0  16382-3 0  9992,2 52137  53.2169 308.6241 0001366 116.7594 243.3538 15.08842337116039,6917.873,95.437,540.683,538.793,0.0
52137.0,STARLINK-3733,PAYLOAD,2024-04-14 18:55:08,15.08840291,0.0001322,53.2166,304.1641,111.8226,248.2907,0.00022976,3.371e-05,0.0,0 STARLINK-3733,1 52137U 22029BB  24105.78829713  .00003371  00000-0  22976-3 0  9993,2 52137  53.2166 304.1641 0001322 111.8226 248.2907 15.08840291116188,6917.879,95.438,540.659,538.83,0.0
52137.0,STARLINK-3733,PAYLOAD,2024-04-15 20:21:19,15.08844563,0.0001081,53.2155,299.4057,87.9425,272.1691,0.00020226,2.933e-05,0.0,0 STARLINK-3733,1 52137U 22029BB  24106.84813686  .00002933  00000-0  20226-3 0  9992,2 52137  53.2155 299.4057 0001081  87.9425 272.1691 15.08844563116349,6917.866,95.437,540.479,538.984,0.0
52137.0,STARLINK-3733,PAYLOAD,2024-04-16 05:53:37,15.08853735,0.0001299,53.2165,297.6249,92.5063,267.6078,0.0003864,5.869e-05,0.0,0 STARLINK-3733,1 52137U 22029BB  24107.24557296  .00005869  00000-0  38640-3 0  9999,2 52137  53.2165 297.6249 0001299  92.5063 267.6078 15.08853735116400,6917.838,95.437,540.602,538.805,0.0
52137.0,STARLINK-3733,PAYLOAD,2024-04-16 20:12:05,15.08851718,0.0001483,53.2174,294.9495,66.5093,293.6055,0.00033053,4.978e-05,0.0,0 STARLINK-3733,1 52137U 22029BB  24107.84173467  .00004978  00000-0  33053-3 0  9992,2 52137  53.2174 294.9495 0001483  66.5093 293.6055 15.08851718116494,6917.845,95.437,540.735,538.684,0.0
52137.0,STARLINK-3733,PAYLOAD,2024-04-17 12:05:57,15.08838344,0.0001195,53.2166,291.9747,95.9461,264.1667,8.5628e-05,1.075e-05,0.0,0 STARLINK-3733,1 52137U 22029BB  24108.50413852  .00001075  00000-0  85628-4 0  9992,2 52137  53.2166 291.9747 0001195  95.9461 264.1667 15.08838344116590,6917.885,95.438,540.577,538.924,0.0
52137.0,STARLINK-3733,PAYLOAD,2024-04-17 18:27:30,15.08834805,0.0001156,53.2162,290.7804,96.6074,263.505,-2.4623e-05,-6.8e-06,0.0,0 STARLINK-3733,1 52137U 22029BB  24108.76910171 -.00000680  00000-0 -24623-4 0  9997,2 52137  53.2162 290.7804 0001156  96.6074 263.5050 15.08834805116634,6917.896,95.438,540.561,538.962,0.0
52137.0,STARLINK-3733,PAYLOAD,2024-04-18 11:56:45,15.08832159,0.0001192,53.2159,287.5101,88.7129,271.4,0.00014352,1.997e-05,0.0,0 STARLINK-3733,1 52137U 22029BB  24109.49774930  .00001997  00000-0  14352-3 0  9996,2 52137  53.2159 287.5101 0001192  88.7129 271.4000 15.08832159116742,6917.904,95.438,540.594,538.945,0.0
52137.0,STARLINK-3733,PAYLOAD,2024-04-18 18:18:17,15.08846579,0.000139,53.2157,286.323,88.6909,271.4242,0.00032435,4.879e-05,0.0,0 STARLINK-3733,1 52137U 22029BB  24109.76270486  .00004879  00000-0  32435-3 0  9997,2 52137  53.2157 286.3230 0001390  88.6909 271.4242 15.08846579116788,6917.86,95.437,540.687,538.764,0.0
52137.0,STARLINK-3733,PAYLOAD,2024-04-19 14:58:18,15.08852613,0.0001577,53.2165,282.4575,94.3733,265.744,0.00050237,7.719e-05,0.0,0 STARLINK-3733,1 52137U 22029BB  24110.62382470  .00007719  00000-0  50237-3 0  9997,2 52137  53.2165 282.4575 0001577  94.3733 265.7440 15.08852613116919,6917.842,95.437,540.798,538.616,0.0
52137.0,STARLINK-3733,PAYLOAD,2024-04-19 21:19:50,15.08863803,0.0001551,53.2163,281.2675,93.3893,266.7277,0.00066595,0.00010333,0.0,0 STARLINK-3733,1 52137U 22029BB  24110.88877980  .00010333  00000-0  66595-3 0  9990,2 52137  53.2163 281.2675 0001551  93.3893 266.7277 15.08863803116959,6917.808,95.436,540.746,538.6,0.0
